MEAN_MOTION;ECCENTRICITY;INCLINATION;RA_OF_ASC_NODE;ARG_OF_PERICENTER;MEAN_ANOMALY;BSTAR;MEAN_MOTION_DOT;MEAN_MOTION_DDOT;TYPE
14.39968256;0.0013276;86.3932;326.6079;55.2193;305.0253;1.7878E-5;7.6E-7;0;Iridium
14.3996836;0.0013236;86.3931;326.373;53.6707;306.5712;1.9728E-5;8.2E-7;0;Iridium
14.3996836;0.0013236;86.3931;326.373;53.6707;306.5712;1.9728E-5;8.2E-7;0;Iridium
14.39968405;0.00132;86.393;326.1382;52.0939;308.1451;1.9577E-5;8.2E-7;0;Iridium
14.39968556;0.0013138;86.3929;325.8154;49.9177;310.3171;2.2962E-5;9.2E-7;0;Iridium
14.3996856;0.0013123;86.3928;325.7273;49.3347;310.8991;2.2078E-5;9.0E-7;0;Iridium
14.39968613;0.0013091;86.3927;325.5512;48.1283;312.1031;2.245E-5;9.1E-7;0;Iridium
14.39968776;0.0013009;86.3926;325.1402;45.3362;314.8895;2.5136E-5;9.9E-7;0;Iridium
14.39968833;0.0012974;86.3925;324.964;44.1236;316.0995;2.5912E-5;1.02E-6;0;Iridium
14.3996883;0.0012968;86.3925;324.9347;43.9191;316.3036;2.5198E-5;9.9E-7;0;Iridium
14.39968534;0.0013408;86.3916;324.7588;41.8719;318.351;1.7371E-5;7.5E-7;0;Iridium
14.39968972;0.0012876;86.3923;324.5236;41.0971;319.1195;2.6096E-5;1.02E-6;0;Iridium
14.39969101;0.0012826;86.3922;324.2888;39.4376;320.7754;2.7744E-5;1.07E-6;0;Iridium
14.39969101;0.0012826;86.3922;324.2888;39.4376;320.7754;2.7744E-5;1.07E-6;0;Iridium
14.39969151;0.0012783;86.3921;324.0833;38.0422;322.1678;2.6669E-5;1.04E-6;0;Iridium
14.39969221;0.0012733;86.392;323.8777;36.6235;323.5831;2.6755E-5;1.04E-6;0;Iridium
14.39969291;0.001268;86.3919;323.6428;34.9935;325.2094;2.5466E-5;1.0E-6;0;Iridium
14.39969426;0.0012581;86.3917;323.2317;32.0803;328.1159;2.3329E-5;9.3E-7;0;Iridium
14.39969562;0.0012485;86.3916;322.85;29.4346;330.7554;2.2142E-5;9.0E-7;0;Iridium
14.3996955;0.0012473;86.3916;322.7914;29.0148;331.1741;2.0589E-5;8.5E-7;0;Iridium
14.3996964;0.0012427;86.3915;322.5858;27.5573;332.6282;2.0537E-5;8.5E-7;0;Iridium
14.39969719;0.0012373;86.3914;322.3509;25.8861;334.2954;2.0661E-5;8.5E-7;0;Iridium
14.39969823;0.0012299;86.3913;322.0279;23.5322;336.6437;1.9611E-5;8.2E-7;0;Iridium
14.39969836;0.0012284;86.3912;321.9692;23.104;337.0708;1.8778E-5;7.9E-7;0;Iridium
14.39969896;0.0012227;86.3912;321.7637;21.6104;338.5608;1.871E-5;7.9E-7;0;Iridium
14.39969944;0.001218;86.3911;321.5875;20.3452;339.8229;1.8482E-5;7.8E-7;0;Iridium
14.39969945;0.0012171;86.3911;321.5581;20.133;340.0347;1.7839E-5;7.6E-7;0;Iridium
14.39970024;0.0012059;86.3909;321.1763;17.3564;342.8045;1.7414E-5;7.5E-7;0;Iridium
14.39970036;0.0012042;86.3909;321.1175;16.9166;343.2432;1.687E-5;7.3E-7;0;Iridium
14.39970108;0.0011943;86.3908;320.7651;14.2984;345.8551;1.7193E-5;7.4E-7;0;Iridium
14.39970114;0.0011937;86.3908;320.7357;14.0799;346.0731;1.6832E-5;7.3E-7;0;Iridium
14.39970115;0.0011927;86.3908;320.7064;13.8641;346.2883;1.652E-5;7.2E-7;0;Iridium
14.39970239;0.0011812;86.3907;320.3245;11.0679;349.0778;1.8808E-5;7.9E-7;0;Iridium
14.39970239;0.0011795;86.3907;320.2658;10.6326;349.512;1.8153E-5;7.7E-7;0;Iridium
14.39970397;0.0011688;86.3905;319.9133;8.0135;352.1249;2.2093E-5;9.0E-7;0;Iridium
14.39970406;0.0011672;86.3905;319.8545;7.5633;352.574;2.1485E-5;8.8E-7;0;Iridium
14.39970551;0.0011567;86.3904;319.5021;4.888;355.2429;2.4422E-5;9.7E-7;0;Iridium
14.39970557;0.0011543;86.3904;319.414;4.2185;355.9109;2.3533E-5;9.4E-7;0;Iridium
14.39970632;0.0011487;86.3903;319.2377;2.8846;357.2418;2.4838E-5;9.8E-7;0;Iridium
14.39970698;0.0011427;86.3902;319.0321;1.3307;358.792;2.4947E-5;9.8E-7;0;Iridium
14.39970759;0.0011361;86.3901;318.8265;359.736;0.3831;2.5016E-5;9.9E-7;0;Iridium
14.39970992;0.0011176;86.3899;318.2096;354.9064;5.2019;2.5664E-5;1.01E-6;0;Iridium
14.39970993;0.0011165;86.3898;318.1802;354.6765;5.4313;2.5119E-5;9.9E-7;0;Iridium
14.39971052;0.0011118;86.3898;318.0333;353.5028;6.6025;2.6003E-5;1.02E-6;0;Iridium
14.39971123;0.0011057;86.3897;317.7983;351.6615;8.4399;2.4617E-5;9.7E-7;0;Iridium
14.39971127;0.0011048;86.3897;317.7689;351.4277;8.6731;2.4067E-5;9.6E-7;0;Iridium
14.39971228;0.0010983;86.3896;317.5633;349.7773;10.3201;2.4604E-5;9.7E-7;0;Iridium
14.39971292;0.0010932;86.3895;317.3869;348.3806;11.7139;2.4268E-5;9.6E-7;0;Iridium
14.39971298;0.0010923;86.3895;317.3575;348.1497;11.9443;2.3661E-5;9.4E-7;0;Iridium
14.39971295;0.0010902;86.3894;317.2988;347.6811;12.412;2.2815E-5;9.2E-7;0;Iridium
14.39971359;0.001087;86.3894;317.1812;346.7202;13.3709;2.3384E-5;9.4E-7;0;Iridium
14.39971473;0.0010753;86.3892;316.7993;343.6332;16.4518;2.189E-5;8.9E-7;0;Iridium
14.39971518;0.0010729;86.3892;316.7111;342.9222;17.1614;2.1195E-5;8.7E-7;0;Iridium
14.39971596;0.0010681;86.3891;316.5348;341.5067;18.5742;2.1517E-5;8.8E-7;0;Iridium
14.39971603;0.0010669;86.3891;316.4761;341.027;19.053;2.0386E-5;8.4E-7;0;Iridium
14.39971668;0.0010619;86.389;316.2997;339.5585;20.5188;2.0103E-5;8.3E-7;0;Iridium
14.39971797;0.0010511;86.3889;315.8884;336.104;23.967;1.8964E-5;8.0E-7;0;Iridium
14.39971961;0.0010393;86.3888;315.4476;332.3787;27.6858;1.9836E-5;8.2E-7;0;Iridium
14.39972027;0.0010344;86.3887;315.2712;330.8966;29.1655;2.0767E-5;8.5E-7;0;Iridium
14.39972046;0.001033;86.3887;315.2125;330.3927;29.6686;2.0632E-5;8.5E-7;0;Iridium
14.39972189;0.0010227;86.3886;314.801;326.8591;33.1966;2.2011E-5;8.9E-7;0;Iridium
14.39972219;0.0010198;86.3886;314.6834;325.8153;34.2388;2.2754E-5;9.2E-7;0;Iridium
14.39972364;0.0010089;86.3884;314.2719;322.2208;37.8281;2.4681E-5;9.8E-7;0;Iridium
14.39972491;0.0010007;86.3884;313.9486;319.4208;40.6244;2.5014E-5;9.9E-7;0;Iridium
14.39972642;0.0009925;86.3883;313.5959;316.2973;43.744;2.7253E-5;1.06E-6;0;Iridium
14.39972684;0.0009884;86.3883;313.4195;314.6843;45.3549;2.6938E-5;1.05E-6;0;Iridium
14.39972761;0.0009825;86.3882;313.1549;312.3159;47.7207;2.5841E-5;1.01E-6;0;Iridium
14.39972761;0.0009825;86.3882;313.1549;312.3159;47.7207;2.5841E-5;1.01E-6;0;Iridium
14.39972748;0.0009817;86.3882;313.1255;312.0605;47.9758;2.4746E-5;9.8E-7;0;Iridium
14.39972946;0.0009705;86.388;312.5669;306.9478;53.0832;2.4763E-5;9.8E-7;0;Iridium
14.39973111;0.0009648;86.3879;312.273;304.2445;55.7839;2.5717E-5;1.01E-6;0;Iridium
14.39973252;0.000959;86.3878;311.8908;300.7069;59.3184;2.4498E-5;9.7E-7;0;Iridium
14.39973279;0.0009556;86.3878;311.7438;299.2665;60.7578;2.3747E-5;9.5E-7;0;Iridium
14.3997337;0.0009508;86.3877;311.4499;296.5255;63.4969;2.0917E-5;8.6E-7;0;Iridium
14.39973398;0.000949;86.3877;311.3029;295.1408;64.8806;2.02E-5;8.3E-7;0;Iridium
14.39973514;0.0009451;86.3876;311.009;292.3835;67.6362;1.9267E-5;8.1E-7;0;Iridium
14.39973542;0.0009441;86.3876;310.8915;291.2696;68.7495;1.9109E-5;8.0E-7;0;Iridium
14.39973628;0.000941;86.3875;310.5975;288.5036;71.514;1.7286E-5;7.4E-7;0;Iridium
14.39973665;0.0009393;86.3875;310.4505;287.0691;72.9478;1.7561E-5;7.5E-7;0;Iridium
14.39973727;0.000937;86.3874;310.1859;284.5748;75.4411;1.6314E-5;7.1E-7;0;Iridium
14.39973727;0.000937;86.3874;310.1859;284.5748;75.4411;1.6314E-5;7.1E-7;0;Iridium
14.39973751;0.000936;86.3874;310.0389;283.1519;76.8635;1.6519E-5;7.2E-7;0;Iridium
14.3997384;0.0009344;86.3874;309.8037;280.9116;79.1031;1.7881E-5;7.6E-7;0;Iridium
14.39973881;0.0009336;86.3874;309.5684;278.6577;81.3564;1.6978E-5;7.3E-7;0;Iridium
14.39973932;0.0009327;86.3874;309.3627;276.696;83.3177;1.7499E-5;7.5E-7;0;Iridium
14.39973972;0.0009324;86.3874;309.1862;274.9917;85.0218;1.8242E-5;7.7E-7;0;Iridium
14.3997407;0.0009309;86.3874;308.9217;272.4342;87.5791;1.9388E-5;8.1E-7;0;Iridium
14.39974078;0.000931;86.3874;308.8922;272.1574;87.8559;1.9434E-5;8.1E-7;0;Iridium
14.39974108;0.0009309;86.3874;308.7746;271.0101;89.0031;2.0462E-5;8.4E-7;0;Iridium
14.39974262;0.0009305;86.3874;308.4807;268.1889;91.8244;2.3433E-5;9.4E-7;0;Iridium
14.39974293;0.0009308;86.3874;308.363;267.0275;92.9859;2.4429E-5;9.7E-7;0;Iridium
14.39974414;0.000931;86.3874;308.069;264.181;95.8327;2.5572E-5;1.0E-6;0;Iridium
14.3997445;0.0009314;86.3874;307.922;262.7278;97.2863;2.6077E-5;1.02E-6;0;Iridium
14.39974536;0.0009321;86.3874;307.6279;259.9107;100.1041;2.4811E-5;9.8E-7;0;Iridium
14.39974577;0.000933;86.3874;307.5103;258.7673;101.2477;2.5646E-5;1.01E-6;0;Iridium
14.39974679;0.0009346;86.3873;307.2457;256.2472;103.7687;2.5303E-5;1.0E-6;0;Iridium
14.39974731;0.0009364;86.3874;307.0693;254.5697;105.4468;2.5148E-5;9.9E-7;0;Iridium
14.39974823;0.0009384;86.3873;306.8047;252.0447;107.9729;2.4101E-5;9.6E-7;0;Iridium
14.39974874;0.00094;86.3873;306.6577;250.6446;109.3737;2.4499E-5;9.7E-7;0;Iridium
14.3997497;0.0009421;86.3873;306.3931;248.155;111.8647;2.305E-5;9.2E-7;0;Iridium
14.39974983;0.0009424;86.3873;306.3637;247.8722;112.1477;2.3074E-5;9.3E-7;0;Iridium
14.39975019;0.000944;86.3873;306.2461;246.746;113.2745;2.3289E-5;9.3E-7;0;Iridium
14.39975148;0.0009475;86.3873;305.9521;243.9921;116.0302;2.2665E-5;9.1E-7;0;Iridium
14.39975196;0.0009498;86.3873;305.8051;242.6097;117.4136;2.2451E-5;9.1E-7;0;Iridium
14.39975258;0.0009535;86.3873;305.5405;240.1216;119.9036;1.9701E-5;8.2E-7;0;Iridium
14.39975258;0.0009535;86.3873;305.5405;240.1216;119.9036;1.9701E-5;8.2E-7;0;Iridium
14.39975299;0.0009561;86.3873;305.3934;238.6993;121.327;1.9879E-5;8.3E-7;0;Iridium
14.39975387;0.0009605;86.3873;305.0994;235.9642;124.0645;1.7624E-5;7.5E-7;0;Iridium
14.3997543;0.0009634;86.3874;304.9524;234.5671;125.4629;1.757E-5;7.5E-7;0;Iridium
14.39975544;0.0009685;86.3874;304.6878;232.1217;127.9107;1.8168E-5;7.7E-7;0;Iridium
14.39975605;0.0009719;86.3874;304.5408;230.7755;129.2582;1.9E-5;8.0E-7;0;Iridium
14.39975682;0.0009768;86.3874;304.2762;228.3547;131.6816;1.835E-5;7.8E-7;0;Iridium
14.39975738;0.0009804;86.3875;304.1291;226.9687;133.0692;1.9669E-5;8.2E-7;0;Iridium
14.39975889;0.0009902;86.3875;303.6587;222.7343;137.3087;2.0107E-5;8.3E-7;0;Iridium
14.39976002;0.0009957;86.3875;303.4235;220.6364;139.4093;2.2559E-5;9.1E-7;0;Iridium
14.3997615;0.0010066;86.3875;303.0118;216.9242;143.1265;2.4153E-5;9.6E-7;0;Iridium
14.39976201;0.0010113;86.3876;302.8354;215.3549;144.6981;2.5004E-5;9.9E-7;0;Iridium
14.39976288;0.0010179;86.3876;302.5708;213.0396;147.0168;2.5261E-5;9.9E-7;0;Iridium
14.3997638;0.0010219;86.3876;302.4238;211.7661;148.2923;2.8098E-5;1.08E-6;0;Iridium
